#aV2014 10 26  0  0  0.00000000     288 DD+AD WGS84 FIT  NGA
## 1816      0.00000000   300.00000000 56956 0.0000000000000
+   31     1  2  4  5  6  7  8  9 10 11 12 13 14 15 16 17 18
+         19 20 21 22 23 24 25 26 27 28 29 30 31 32  0  0  0
+          0  0  0  0  0  0  0  0  0  0  0  0  0  0  0  0  0
+          0  0  0  0  0  0  0  0  0  0  0  0  0  0  0  0  0
+          0  0  0  0  0  0  0  0  0  0  0  0  0  0  0  0  0
++         2  2  2  2  2  2  2  2  2  2  2  2  2  2  2  2  2
++         2  2  2  2  2  2  2  2  2  2  2  2  2  2  0  0  0
++         0  0  0  0  0  0  0  0  0  0  0  0  0  0  0  0  0
++         0  0  0  0  0  0  0  0  0  0  0  0  0  0  0  0  0
++         0  0  0  0  0  0  0  0  0  0  0  0  0  0  0  0  0
%c cc cc ccc ccc cccc cccc cccc cccc ccccc ccccc ccccc ccccc
%c cc cc ccc ccc cccc cccc cccc cccc ccccc ccccc ccccc ccccc
%f  0.0000000  0.000000000  0.00000000000  0.000000000000000
%f  0.0000000  0.000000000  0.00000000000  0.000000000000000
%i    0    0    0    0      0      0      0      0         0
%i    0    0    0    0      0      0      0      0         0
/*      NGA, ST. LOUIS,MO.                                  
/*   EPHEMERIS COMPUTED FROM  1 DAYS OF DATA                
/*   EPOCHA SMOOTHER                                       
/* CCCCCCCCCCCCCCCCCCCCCCCCCCCCCCCCCCCCCCCCCCCCCCCCCCCCCCCCC
*  2014 10 26  7 25  0.00000000
P  1  -9112.909094 -13685.106752 -20940.455923     22.918147                    
V  1  26189.740637  -3701.683056  -8844.971398      0.004338                    
P  2 -16087.680379  14046.940222  15795.028721    526.364750                    
V  2 -19912.264421    320.611407 -21467.371569      0.022116                    
P  4  -5341.570017 -15161.044178 -21471.044420     -2.075386                    
V  4  26334.915020  -3765.177328  -3703.235543     -0.005751                    
P  5  -4828.913422  17061.559864  19675.209435   -325.305789                    
V  5 -16333.231744 -19220.140368  12802.758414      0.042345                    
P  6 -25285.092346   6499.552588   4821.411659      2.992997                    
V  6  -6437.254014  -1996.588206 -30977.793006      0.036890                    
P  7 -21212.274525  -7804.940121  14326.738210    406.163425                    
V  7  17634.696138  -3289.284258  24130.647520      0.039505                    
P  8  -8755.380187 -13842.534956  21234.271117     16.050356                    
V  8  26287.503894    -13.576786  10318.582430      0.001027                    
P  9 -11417.750028 -11177.491999  21218.286389      5.029800                    
V  9  11095.432623 -24558.606496  -6980.583666     -0.058499                    
P 10 -17441.617305    515.466900  19774.380722   -147.156009                    
V 10 -14363.957617 -21534.296183 -11467.625617     -0.014855                    
P 11  -2262.172533 -17312.115532 -20513.718214   -531.557827                    
V 11  23203.159297 -10024.112495   6227.050409     -0.028909                    
P 12   8430.243253  23450.689451  -9566.692152    241.566805                    
V 12  -8026.481864  -8971.176963 -29093.641883      0.027338                    
P 13 -16718.978080   1427.308461  20512.024072    -54.567569                    
V 13  12201.630512 -23250.521495  11311.878310     -0.036459                    
P 14  17715.856793  -6870.694173 -18262.779706    121.829051                    
V 14  -9566.271895  21740.289936 -17381.210685     -0.036223                    
P 15   -785.744215  24193.306974 -10632.966708   -210.827185                    
V 15  -7952.255798  11493.329902  27209.873932     -0.022171                    
P 16   5242.405835 -16203.275984  20219.264359   -185.446362                    
V 16  15001.391922  21055.738087  13293.824615      0.027322                    
P 17 -17264.889339   6043.103833 -18903.531594   -133.264140                    
V 17   9357.584730 -22825.287198 -15846.172770     -0.025582                    
P 18  20213.679683  14096.715033  -9839.166967    353.917482                    
V 18   5369.218494  12432.197145  27225.533026      0.026194                    
P 19   7112.993897 -24206.178579  -7694.283744   -485.214838                    
V 19   7054.781444  -7158.725247  30123.195877     -0.017480                    
P 20 -14482.284098 -21913.969858  -4385.955628    249.440857                    
V 20   6305.078489   1632.461069 -30275.125694      0.042789                    
P 21  24607.872236   4418.449216  10217.087375   -391.402644                    
V 21 -11491.036140   4319.549658  27181.420460     -0.020496                    
P 22  18689.095868   1151.421884 -18680.916354    280.720693                    
V 22  13339.709999  20334.239420  14267.636106      0.037452                    
P 23  -4325.615665 -20047.822061  16770.027056    -62.593581                    
V 23  10520.189004 -18593.676945 -20086.388037     -0.028168                    
P 24   5150.488469  14688.386260 -21546.886699    -37.441803                    
V 24 -27052.375253   3898.318669  -3700.346068     -0.005720                    
P 25  17260.841600  20117.309686   2537.088677     16.970816                    
V 25    253.842570   3936.726822 -31817.489140     -0.014908                    
P 26 -12156.887275  23437.498024   -952.502220   -101.177944                    
V 26  -2524.231859   -904.672722  32196.173688     -0.128529                    
P 27  12514.569033 -23100.002095   3620.747386     25.068391                    
V 27    695.305693   5316.229657  31450.372309      0.028835                    
P 28 -18360.099341  -7607.678166 -17070.703524    393.894151                    
V 28 -11296.745745 -19826.265518  20145.773378      0.026078                    
P 29   9525.898593  13210.525416  21013.986024    569.123830                    
V 29 -12345.773015  23552.506547  -9186.080613      0.024298                    
P 30 -26226.868988  -1714.256466   4014.178343    -75.602536                    
V 30   4965.686558  -3044.356770  31106.460384     -0.030798                    
P 31  24787.515045  -7074.900540   7212.496270    330.017883                    
V 31   8992.912698   1113.488245 -30150.951135     -0.005224                    
P 32  -1591.619636 -22358.496220 -14638.335028   -308.917395                    
V 32  11497.639646  14556.163229 -22905.565021      0.088369                    
EOF
